FENGYUN 1C DEB          
1 38127U 99025EPY 17329.68702141  .00000659  00000-0  25749-3 0  9997
2 38127  99.0877 143.4548 0064813  64.7987 295.9896 14.31947765188681
